starlink-1_58_10
1 01264U 00000ABC 23060.00080074  .00000000  00000-0  00000+0 0    05
2 01264  53.0000 290.0000 0001000  90.0000 265.9091 15.06000000    08
starlink-1_58_11
1 01265U 00000ABC 23060.00080074  .00000000  00000-0  00000+0 0    06
2 01265  53.0000 290.0000 0001000  90.0000 292.5000 15.06000000    05
starlink-1_58_12
1 01266U 00000ABC 23060.00080074  .00000000  00000-0  00000+0 0    07
2 01266  53.0000 290.0000 0001000  90.0000 319.0909 15.06000000    09
starlink-1_58_13
1 01267U 00000ABC 23060.00080074  .00000000  00000-0  00000+0 0    08
2 01267  53.0000 290.0000 0001000  90.0000 345.6818 15.06000000    04
starlink-1_58_14
1 01268U 00000ABC 23060.00080074  .00000000  00000-0  00000+0 0    09
2 01268  53.0000 290.0000 0001000  90.0000  12.2727 15.06000000    01
starlink-1_58_15
1 01269U 00000ABC 23060.00080074  .00000000  00000-0  00000+0 0    00
2 01269  53.0000 290.0000 0001000  90.0000  38.8636 15.06000000    05
starlink-1_58_16
1 01270U 00000ABC 23060.00080074  .00000000  00000-0  00000+0 0    02
2 01270  53.0000 290.0000 0001000  90.0000  65.4545 15.06000000    02
starlink-1_58_17
1 01271U 00000ABC 23060.00080074  .00000000  00000-0  00000+0 0    03
2 01271  53.0000 290.0000 0001000  90.0000  92.0455 15.06000000    09
starlink-1_58_18
1 01272U 00000ABC 23060.00080074  .00000000  00000-0  00000+0 0    04
2 01272  53.0000 290.0000 0001000  90.0000 118.6364 15.06000000    04
starlink-1_58_19
1 01273U 00000ABC 23060.00080074  .00000000  00000-0  00000+0 0    05
2 01273  53.0000 290.0000 0001000  90.0000 145.2273 15.06000000    00
starlink-1_58_20
1 01274U 00000ABC 23060.00080074  .00000000  00000-0  00000+0 0    06
2 01274  53.0000 290.0000 0001000  90.0000 171.8182 15.06000000    05
starlink-1_58_21
1 01275U 00000ABC 23060.00080074  .00000000  00000-0  00000+0 0    07
2 01275  53.0000 290.0000 0001000  90.0000 198.4091 15.06000000    00
starlink-1_58_22
1 01276U 00000ABC 23060.00080074  .00000000  00000-0  00000+0 0    08
2 01276  53.0000 290.0000 0001000  90.0000 225.0000 15.06000000    08
starlink-1_59_1
1 01277U 00000ABC 23060.00080074  .00000000  00000-0  00000+0 0    09
2 01277  53.0000 295.0000 0001000  90.0000  26.5909 15.06000000    06
starlink-1_59_2
1 01278U 00000ABC 23060.00080074  .00000000  00000-0  00000+0 0    00
2 01278  53.0000 295.0000 0001000  90.0000  53.1818 15.06000000    02
starlink-1_59_3
1 01279U 00000ABC 23060.00080074  .00000000  00000-0  00000+0 0    01
2 01279  53.0000 295.0000 0001000  90.0000  79.7727 15.06000000    06
starlink-1_59_4
1 01280U 00000ABC 23060.00080074  .00000000  00000-0  00000+0 0    03
2 01280  53.0000 295.0000 0001000  90.0000 106.3636 15.06000000    04
starlink-1_59_5
1 01281U 00000ABC 23060.00080074  .00000000  00000-0  00000+0 0    04
2 01281  53.0000 295.0000 0001000  90.0000 132.9545 15.06000000    09
starlink-1_59_6
1 01282U 00000ABC 23060.00080074  .00000000  00000-0  00000+0 0    05
2 01282  53.0000 295.0000 0001000  90.0000 159.5455 15.06000000    05
starlink-1_59_7
1 01283U 00000ABC 23060.00080074  .00000000  00000-0  00000+0 0    06
2 01283  53.0000 295.0000 0001000  90.0000 186.1364 15.06000000    01
starlink-1_59_8
1 01284U 00000ABC 23060.00080074  .00000000  00000-0  00000+0 0    07
2 01284  53.0000 295.0000 0001000  90.0000 212.7273 15.06000000    07
starlink-1_59_9
1 01285U 00000ABC 23060.00080074  .00000000  00000-0  00000+0 0    08
2 01285  53.0000 295.0000 0001000  90.0000 239.3182 15.06000000    02
starlink-1_59_10
1 01286U 00000ABC 23060.00080074  .00000000  00000-0  00000+0 0    09
2 01286  53.0000 295.0000 0001000  90.0000 265.9091 15.06000000    07
starlink-1_59_11
1 01287U 00000ABC 23060.00080074  .00000000  00000-0  00000+0 0    00
2 01287  53.0000 295.0000 0001000  90.0000 292.5000 15.06000000    04
starlink-1_59_12
1 01288U 00000ABC 23060.00080074  .00000000  00000-0  00000+0 0    01
2 01288  53.0000 295.0000 0001000  90.0000 319.0909 15.06000000    08
starlink-1_59_13
1 01289U 00000ABC 23060.00080074  .00000000  00000-0  00000+0 0    02
2 01289  53.0000 295.0000 0001000  90.0000 345.6818 15.06000000    03
starlink-1_59_14
1 01290U 00000ABC 23060.00080074  .00000000  00000-0  00000+0 0    04
2 01290  53.0000 295.0000 0001000  90.0000  12.2727 15.06000000    01
starlink-1_59_15
1 01291U 00000ABC 23060.00080074  .00000000  00000-0  00000+0 0    05
2 01291  53.0000 295.0000 0001000  90.0000  38.8636 15.06000000    05
starlink-1_59_16
1 01292U 00000ABC 23060.00080074  .00000000  00000-0  00000+0 0    06
2 01292  53.0000 295.0000 0001000  90.0000  65.4545 15.06000000    01
starlink-1_59_17
1 01293U 00000ABC 23060.00080074  .00000000  00000-0  00000+0 0    07
2 01293  53.0000 295.0000 0001000  90.0000  92.0455 15.06000000    08
starlink-1_59_18
1 01294U 00000ABC 23060.00080074  .00000000  00000-0  00000+0 0    08
2 01294  53.0000 295.0000 0001000  90.0000 118.6364 15.06000000    03
starlink-1_59_19
1 01295U 00000ABC 23060.00080074  .00000000  00000-0  00000+0 0    09
2 01295  53.0000 295.0000 0001000  90.0000 145.2273 15.06000000    09
starlink-1_59_20
1 01296U 00000ABC 23060.00080074  .00000000  00000-0  00000+0 0    00
2 01296  53.0000 295.0000 0001000  90.0000 171.8182 15.06000000    04
starlink-1_59_21
1 01297U 00000ABC 23060.00080074  .00000000  00000-0  00000+0 0    01
2 01297  53.0000 295.0000 0001000  90.0000 198.4091 15.06000000    09
starlink-1_59_22
1 01298U 00000ABC 23060.00080074  .00000000  00000-0  00000+0 0    02
2 01298  53.0000 295.0000 0001000  90.0000 225.0000 15.06000000    07
starlink-1_60_1
1 01299U 00000ABC 23060.00080074  .00000000  00000-0  00000+0 0    03
2 01299  53.0000 300.0000 0001000  90.0000  26.5909 15.06000000    07
starlink-1_60_2
1 01300U 00000ABC 23060.00080074  .00000000  00000-0  00000+0 0    06
2 01300  53.0000 300.0000 0001000  90.0000  53.1818 15.06000000    05
starlink-1_60_3
1 01301U 00000ABC 23060.00080074  .00000000  00000-0  00000+0 0    07
2 01301  53.0000 300.0000 0001000  90.0000  79.7727 15.06000000    09
starlink-1_60_4
1 01302U 00000ABC 23060.00080074  .00000000  00000-0  00000+0 0    08
2 01302  53.0000 300.0000 0001000  90.0000 106.3636 15.06000000    06
starlink-1_60_5
1 01303U 00000ABC 23060.00080074  .00000000  00000-0  00000+0 0    09
2 01303  53.0000 300.0000 0001000  90.0000 132.9545 15.06000000    01
starlink-1_60_6
1 01304U 00000ABC 23060.00080074  .00000000  00000-0  00000+0 0    00
2 01304  53.0000 300.0000 0001000  90.0000 159.5455 15.06000000    07
starlink-1_60_7
1 01305U 00000ABC 23060.00080074  .00000000  00000-0  00000+0 0    01
2 01305  53.0000 300.0000 0001000  90.0000 186.1364 15.06000000    03
starlink-1_60_8
1 01306U 00000ABC 23060.00080074  .00000000  00000-0  00000+0 0    02
2 01306  53.0000 300.0000 0001000  90.0000 212.7273 15.06000000    09
starlink-1_60_9
1 01307U 00000ABC 23060.00080074  .00000000  00000-0  00000+0 0    03
2 01307  53.0000 300.0000 0001000  90.0000 239.3182 15.06000000    04
starlink-1_60_10
1 01308U 00000ABC 23060.00080074  .00000000  00000-0  00000+0 0    04
2 01308  53.0000 300.0000 0001000  90.0000 265.9091 15.06000000    09
starlink-1_60_11
1 01309U 00000ABC 23060.00080074  .00000000  00000-0  00000+0 0    05
2 01309  53.0000 300.0000 0001000  90.0000 292.5000 15.06000000    06
starlink-1_60_12
1 01310U 00000ABC 23060.00080074  .00000000  00000-0  00000+0 0    07
2 01310  53.0000 300.0000 0001000  90.0000 319.0909 15.06000000    01
starlink-1_60_13
1 01311U 00000ABC 23060.00080074  .00000000  00000-0  00000+0 0    08
2 01311  53.0000 300.0000 0001000  90.0000 345.6818 15.06000000    06
starlink-1_60_14
1 01312U 00000ABC 23060.00080074  .00000000  00000-0  00000+0 0    09
2 01312  53.0000 300.0000 0001000  90.0000  12.2727 15.06000000    03
starlink-1_60_15
1 01313U 00000ABC 23060.00080074  .00000000  00000-0  00000+0 0    00
2 01313  53.0000 300.0000 0001000  90.0000  38.8636 15.06000000    07
starlink-1_60_16
1 01314U 00000ABC 23060.00080074  .00000000  00000-0  00000+0 0    01
2 01314  53.0000 300.0000 0001000  90.0000  65.4545 15.06000000    03
starlink-1_60_17
1 01315U 00000ABC 23060.00080074  .00000000  00000-0  00000+0 0    02
2 01315  53.0000 300.0000 0001000  90.0000  92.0455 15.06000000    00
starlink-1_60_18
1 01316U 00000ABC 23060.00080074  .00000000  00000-0  00000+0 0    03
2 01316  53.0000 300.0000 0001000  90.0000 118.6364 15.06000000    05
starlink-1_60_19
1 01317U 00000ABC 23060.00080074  .00000000  00000-0  00000+0 0    04
2 01317  53.0000 300.0000 0001000  90.0000 145.2273 15.06000000    01
starlink-1_60_20
1 01318U 00000ABC 23060.00080074  .00000000  00000-0  00000+0 0    05
2 01318  53.0000 300.0000 0001000  90.0000 171.8182 15.06000000    06
starlink-1_60_21
1 01319U 00000ABC 23060.00080074  .00000000  00000-0  00000+0 0    06
2 01319  53.0000 300.0000 0001000  90.0000 198.4091 15.06000000    01
starlink-1_60_22
1 01320U 00000ABC 23060.00080074  .00000000  00000-0  00000+0 0    08
2 01320  53.0000 300.0000 0001000  90.0000 225.0000 15.06000000    00
starlink-1_61_1
1 01321U 00000ABC 23060.00080074  .00000000  00000-0  00000+0 0    09
2 01321  53.0000 305.0000 0001000  90.0000  26.5909 15.06000000    08
starlink-1_61_2
1 01322U 00000ABC 23060.00080074  .00000000  00000-0  00000+0 0    00
2 01322  53.0000 305.0000 0001000  90.0000  53.1818 15.06000000    04
starlink-1_61_3
1 01323U 00000ABC 23060.00080074  .00000000  00000-0  00000+0 0    01
2 01323  53.0000 305.0000 0001000  90.0000  79.7727 15.06000000    08
starlink-1_61_4
1 01324U 00000ABC 23060.00080074  .00000000  00000-0  00000+0 0    02
2 01324  53.0000 305.0000 0001000  90.0000 106.3636 15.06000000    05
starlink-1_61_5
1 01325U 00000ABC 23060.00080074  .00000000  00000-0  00000+0 0    03
2 01325  53.0000 305.0000 0001000  90.0000 132.9545 15.06000000    00
starlink-1_61_6
1 01326U 00000ABC 23060.00080074  .00000000  00000-0  00000+0 0    04
2 01326  53.0000 305.0000 0001000  90.0000 159.5455 15.06000000    06
